0 IRIDIUM 33 DEB
1 34361U 97051FD  13281.80050231  .00006343  00000-0  19755-2 0  4229
2 34361 086.3771 133.7989 0049855 318.7686 169.3692 14.40095645241675
0 IRIDIUM 33 DEB
1 34361U 97051FD  13283.12046170  .00008810  00000-0  27437-2 0  4231
2 34361 086.3773 133.2389 0049600 314.4432 172.5418 14.40124744241862
0 IRIDIUM 33 DEB
1 34361U 97051FD  13283.58228981  .00011346  00000-0  35451-2 0  4258
2 34361 086.3762 133.0408 0049940 313.3684 046.3844 14.40118569241931
0 IRIDIUM 33 DEB
1 34361U 97051FD  13286.03751450  .00007616  00000-0  23706-2 0  4258
2 34361 086.3771 132.0013 0049042 304.9106 175.9711 14.40162293242284
0 IRIDIUM 33 DEB
1 34361U 97051FD  13287.08000691  .00007559  00000-0  23523-2 0  4262
2 34361 086.3767 131.5590 0048867 301.4480 180.9189 14.40175112242430
0 IRIDIUM 33 DEB
1 34361U 97051FD  13288.31845830  .00012415  00000-0  38633-2 0  4277
2 34361 086.3762 131.0335 0048630 297.3516 121.9053 14.40199761242608
0 IRIDIUM 33 DEB
1 34361U 97051FD  13289.35944172  .00010910  00000-0  33941-2 0  4287
2 34361 086.3758 130.5918 0048462 293.8703 119.2084 14.40218138242756
0 IRIDIUM 33 DEB
1 34361U 97051FD  13290.61144640  .00011119  00000-0  34580-2 0  4293
2 34361 086.3752 130.0602 0048293 289.6792 130.7028 14.40239049242938
0 IRIDIUM 33 DEB
1 34361U 97051FD  13291.80558319  .00009889  00000-0  30742-2 0  4306
2 34361 086.3751 129.5534 0048156 285.6621 202.2739 14.40258527243116
0 IRIDIUM 33 DEB
1 34361U 97051FD  13292.83448096  .00009844  00000-0  30594-2 0  4317
2 34361 086.3751 129.1166 0048028 282.2177 137.1330 14.40275459243251
0 IRIDIUM 33 DEB
1 34361U 97051FD  13294.30577667  .00011364  00000-0  35307-2 0  4326
2 34361 086.3753 128.4922 0047903 277.2833 205.9536 14.40297212243476
0 IRIDIUM 33 DEB
1 34361U 97051FD  13295.34692370  .00012247  00000-0  38038-2 0  4336
2 34361 086.3754 128.0502 0047827 273.7770 204.4989 14.40315505243622
